#dP2021  7 30  0  0  0.00000000     289 ORBIT IGS14 BHN ESOC                    
## 2168 432000.00000000   300.00000000 59425 0.0000000000000                    
+  114   G13G28G21G22G07G05G20G31G17G15G16G29G12G19G02G25G01                    
+        G30G24G27G06G09G03G32G26G08G10G04G18G23R09R11R20R19                    
+        R13R01R22R16R08R03R07R02R17R18R21R05R15R12R04R24E11                    
+        E12E19E18E14E26E24E30E08E09E01E02E07E03E04E05E21E25                    
+        E27E31E36E13E15E33C11C12C14C19C20C27C28C22C21C29C30                    
+        C23C24C26C25C32C33C35C34C36C37C46C45C44C43C41C42C06                    
+        C07C08C09C10C13C16C38C39C40J01J02J03  0  0  0  0  0                    
++         4  5  5  5  4  5  5  5  5  5  5  5  5  5  5  5  5                    
++         4  5  5  5  5  5  5  5  5  5  5  5  5  7  6  7  6                    
++         6  7  6  6  5  6  5  5  5  5  5  5  5  6  5  5  5                    
++         5  5  5  5  5  5  5  5  5  5  5  5  5  5  5  5  5                    
++         5  5  5  5  5  5  5  5  5  6  5  5  5  5  6  5  5                    
++         5  5  5  5  5  5  5  5  5  5  3  5  5  5  6  6  6                    
++         6  6  6  6  7  6  8  7  7 11  7  6  0  0  0  0  0                    
%c M  cc GPS ccc cccc cccc cccc cccc ccccc ccccc ccccc ccccc                    
%c cc cc ccc ccc cccc cccc cccc cccc ccccc ccccc ccccc ccccc                    
%f  0.0000000  0.000000000  0.00000000000  0.000000000000000                    
%f  0.0000000  0.000000000  0.00000000000  0.000000000000000                    
%i    0    0    0    0      0      0      0      0         0                    
%i    0    0    0    0      0      0      0      0         0                    
/* CCCCCCCCCCCCCCCCCCCCCCCCCCCCCCCCCCCCCCCCCCCCCCCCCCCCCCCCCCCCCCCCCCCCCCCCCCCCC
/* CCCCCCCCCCCCCCCCCCCCCCCCCCCCCCCCCCCCCCCCCCCCCCCCCCCCCCCCCCCCCCCCCCCCCCCCCCCCC
/* CCCCCCCCCCCCCCCCCCCCCCCCCCCCCCCCCCCCCCCCCCCCCCCCCCCCCCCCCCCCCCCCCCCCCCCCCCCCC
/* PCV:IGS14      OL/AL:EOT11A   NONE     YN ORB:CoN CLK:CoN                    
*  2021  7 30  9 20  0.00000000                                                 
PG13 -13729.722723   7105.417870  21443.820748    164.484166                    
PG28 -23861.903637 -10789.501519   4306.742670    528.911563                    
PG21  16870.055655 -20134.154432   1140.042440    134.309063                    
PG22  15598.963137 -11458.222881 -17923.822954   -550.847643                    
PG07   -886.822807 -18823.382662  18885.351023    214.003042                    
PG05 -19649.493483   7851.322679  15993.618645    -49.503847                    
PG20 -25759.829736   2156.035930   5431.302771    519.921954                    
PG31  18872.665053   -274.339128 -18953.359041   -131.474308                    
PG17 -12688.146264 -20306.605574 -11057.337684    481.605688                    
PG15  -7756.718872  16686.275099  18658.060678   -131.952380                    
PG16  23901.377514   -801.619277  11785.434556   -365.409057                    
PG29   3684.027785  26026.598599  -3614.485884   -388.301597                    
PG12  -9100.160022  12710.475627 -21706.051955    -75.763350                    
PG19 -15068.278499 -12400.271408 -18364.781713     33.000579                    
PG02 -20069.400919  11093.717799 -12805.784659   -623.038792                    
PG25   3756.169326  15994.910907 -21180.271288    182.421931                    
PG01  12545.740543 -21692.417677  -8534.153884    612.813223                    
PG30 -11963.525681 -10311.973590  21427.643499   -456.595543                    
PG24 -14347.753943  21896.557256  -3188.409812    192.287910                    
PG27  14227.206602  -4123.250805  21867.946392   -170.699317                    
PG06 -17156.771588  -1184.870767 -20200.152937     47.825080                    
PG09  -7042.673483 -25523.367855  -2003.595407   -357.275553                    
PG03   8017.704188 -13361.564529 -21587.723559   -236.848259                    
PG32  15377.785799  17103.077021 -13318.767456     11.100242                    
PG26  26382.350707   4114.569386    651.016918    116.685057                    
PG08   9123.100541 -15294.090730  19591.531675    -30.699315                    
PG10  21753.488895  11840.137153  10079.839129   -172.269997                    
PG04   2408.929771 -23384.022403 -12295.320133   -203.248120                    
PG18   2438.926550  17304.297668  19962.744094    337.127144                    
PG23  11899.197678  15190.559466  18254.861671     77.645352                    
PR09  22795.642954   -597.330352 -11331.082563      5.496240                    
PR11  10413.768945 -12570.661378  19609.804062     45.359962                    
PR20   9536.289465   4146.567535  23293.361246    -53.319066                    
PR19   -125.420958  21352.972623  13938.957725   -153.502957                    
PR13 -22458.599136    312.700465  12087.313270    -58.443283                    
PR01 -14217.892133 -19400.525913  -8516.134152     83.051105                    
PR22   7232.219294 -24407.721094    433.042059   -125.288473                    
PR16  10563.910146   7968.541153 -21846.594496    -18.731203                    
PR08  -2097.536923 -15603.334461 -20008.049813    -60.155212                    
PR03 -11979.790315   3004.228867  22353.311082     40.402205                    
PR07  11572.613546  -3455.876990 -22436.230915    -41.859117                    
PR02 -19293.577935 -11602.779856  11975.274935    487.899676                    
PR17 -12037.699148  14870.486168 -16844.956156    445.450421                    
PR18  -7562.310487  24341.025119  -1492.989750     85.169861                    
PR21  11918.059329 -15985.995968  15921.734959   -227.721641                    
PR05  14863.555995  19617.947966   6753.207101     76.238641                    
PR15 -10020.911627  12501.408956 -19824.182399    102.379277                    
PR12  -9049.995352  -8569.234201  22285.736649    249.489573                    
PR04   2062.084300  15518.665649  20168.088310     98.048783                    
PR24 -10296.976505  -3327.749276 -23089.407157     52.485939                    
PE11   8776.776605  15277.656971  23771.507356   5648.995054                    
PE12  -7600.457498  26248.458002  11383.929052   5085.658378                    
PE19 -12715.777488  11822.263646  23980.419522    339.592853                    
PE18 -13487.595689 -26252.659830  -8727.669121  -1664.189921                    
PE14   1595.556534  25966.114829  -5749.422617  -1517.943875                    
PE26 -19774.843292   4973.596136 -21458.192008   1520.236265                    
PE24  19412.215585  13184.570907 -18056.476931  -1035.446031                    
PE30   2222.711700 -16512.659237  24463.486145   2742.859966                    
PE08  -4313.789503 -26559.769276 -12348.766906   5962.222637                    
PE09  17171.290846  23310.612904  -6109.900566   5583.236534                    
PE01 -22119.372531  10306.550044 -16747.508050  -1160.913389                    
PE02  22011.030687 -10386.262468  16857.628601    236.432601                    
PE07 -17029.691218 -23485.692632   5924.988295   -567.749579                    
PE03  11297.788363 -14127.491334 -23431.370771   -458.202715                    
PE04   3826.638174  26509.312438  12604.916730   -824.199070                    
PE05  20055.862763   6782.590257 -20680.363258   -261.208443                    
PE21 -29575.714646  -1264.472089      3.044809   -679.118079                    
PE25  29565.851482   1389.510615   -188.883666   -541.616716                    
PE27 -20264.597572 -12675.885222  17467.874542    -86.817860                    
PE31   -882.648310  16540.337194 -24518.309283   -483.829907                    
PE36  19371.270264  -4202.685698  21978.200329   -241.431120                    
PE13  -8435.609753 -15595.729801 -23705.419613    419.657385                    
PE15   7511.894896 -26246.624667 -11442.298323    800.729206                    
PE33 -18999.886528  21414.138809  -7531.949412   -466.969783                    
PC11 -14413.648734  -6600.346068 -22915.540222    487.511183                    
PC12  -6667.484643 -23529.083589 -13438.693182    796.364092                    
PC14 -24710.272342 -10961.930489   7074.552845    762.189941                    
PC19  23097.817310   2967.971503 -15337.247467    927.963103                    
PC20  22774.563573  16084.768471    603.794725   -831.630550                    
PC27    823.337635  27446.828013   4987.368427    572.613230                    
PC28 -10741.881751  22591.845599 -12358.975752    -44.608634                    
PC22  10019.612525 -12339.686847 -22935.081451   -949.043657                    
PC21  -8781.728028 -20293.811106 -17023.562645   -937.706131                    
PC29  15826.427594  -5101.757806  22400.374880    426.386059                    
PC30  12272.195146  16284.362372  19050.224674    475.717474                    
PC23 -19709.185980  17066.086546  -9943.346645   -964.857399                    
PC24 -16790.900142  -8467.336365  20614.252490   -964.337121                    
PC26    644.210647 -17603.085052  21647.310916    871.516160                    
PC25 -25984.433132   7359.244653   6992.484159   -878.125228                    
PC32   8845.415747  20226.132588  17075.597129   -927.198666                    
PC33 -23182.122459  -2897.087090  15281.990658   -949.346437                    
PC35  10175.385845 -22681.149435  12641.277030   -163.419575                    
PC34 -12620.950180 -15509.621358 -19471.077302   -616.591843                    
PC36  26125.467847  -6505.427073  -7303.467618   -737.720641                    
PC37  -2042.818045  17819.211184 -21350.142947   -862.548625                    
PC46  17715.564607   7519.569119 -20205.019804    155.441934                    
PC45  19577.968076 -17121.248401  10149.130527    507.027515                    
PC44  -1688.704825 -27421.447748  -4821.775972    315.268585                    
PC43 -16005.709365   4393.198624 -22446.364025   -844.743361                    
PC41 -10361.445833  12172.119738  22920.880604   -969.474463                    
PC42 -22509.738883 -16456.442154  -1318.256642   -925.534781                    
PC06 -11183.492654  38429.173200  14540.855329    690.385607                    
PC07 -12562.111089  23357.603262 -32481.931557     65.913291                    
PC08 -24733.275229  27852.089051  19482.881455   -912.198088                    
PC09  -2785.999456  42319.347163    308.285343     11.713085                    
PC10   1635.512879  28360.666634 -30796.667138    -13.613117                    
PC13 -11535.788186  28647.583349  28679.161348    355.223538                    
PC16  -9200.887012  39280.020253  12778.945093   -888.902389                    
PC38 -22441.408859  29564.662087  19860.460939    165.097405                    
PC39  -6251.806456  39869.575957  12495.616420     32.651587                    
PC40  -1954.591864  24219.247846 -34401.617550    185.393213                    
PJ01 -25591.600398  21922.210621  30383.556217   -427.281954                    
PJ02 -34130.523797  15710.472726 -14616.471030     -1.145520                    
PJ03 -20920.553143  31397.933232 -14070.490418     -0.431085                    
EOF                                                                             
